CCSDS_OMM_VERS = 2.0
CREATION_DATE  = 
ORIGINATOR     = 

OBJECT_NAME    = STARLINK-36799
OBJECT_ID      = 2026-037AC
CENTER_NAME    = EARTH
REF_FRAME      = TEME
TIME_SYSTEM    = UTC
MEAN_ELEMENT_THEORY = SGP/SGP4

EPOCH          = 2026-03-05T16:00:00.999936
MEAN_MOTION    = 15.95000029
ECCENTRICITY   = .0001682
INCLINATION    = 42.9994
RA_OF_ASC_NODE = 223.1966
ARG_OF_PERICENTER = 283.9444
MEAN_ANOMALY   = 101.9941

EPHEMERIS_TYPE = 0
CLASSIFICATION_TYPE = U
NORAD_CAT_ID   = 67958
ELEMENT_SET_NO = 999
REV_AT_EPOCH   = 255
BSTAR          = -.37776E-2
MEAN_MOTION_DOT = -.1518178E-1
MEAN_MOTION_DDOT = .66823E-3

CCSDS_OMM_VERS = 2.0
CREATION_DATE  = 
ORIGINATOR     = 

OBJECT_NAME    = STARLINK-36834
OBJECT_ID      = 2026-037AD
CENTER_NAME    = EARTH
REF_FRAME      = TEME
TIME_SYSTEM    = UTC
MEAN_ELEMENT_THEORY = SGP/SGP4

EPOCH          = 2026-03-05T16:00:00.999936
MEAN_MOTION    = 15.95230234
ECCENTRICITY   = .0001532
INCLINATION    = 42.9996
RA_OF_ASC_NODE = 223.1817
ARG_OF_PERICENTER = 278.9970
MEAN_ANOMALY   = 112.6411

EPHEMERIS_TYPE = 0
CLASSIFICATION_TYPE = U
NORAD_CAT_ID   = 67959
ELEMENT_SET_NO = 999
REV_AT_EPOCH   = 255
BSTAR          = -.3685E-2
MEAN_MOTION_DOT = -.1499676E-1
MEAN_MOTION_DDOT = .65486E-3

CCSDS_OMM_VERS = 2.0
CREATION_DATE  = 
ORIGINATOR     = 

OBJECT_NAME    = STARLINK-36841
OBJECT_ID      = 2026-037AE
CENTER_NAME    = EARTH
REF_FRAME      = TEME
TIME_SYSTEM    = UTC
MEAN_ELEMENT_THEORY = SGP/SGP4

EPOCH          = 2026-03-05T16:00:00.999936
MEAN_MOTION    = 15.95125495
ECCENTRICITY   = .0001448
INCLINATION    = 42.9995
RA_OF_ASC_NODE = 223.1892
ARG_OF_PERICENTER = 280.2517
MEAN_ANOMALY   = 108.3858

EPHEMERIS_TYPE = 0
CLASSIFICATION_TYPE = U
NORAD_CAT_ID   = 67960
ELEMENT_SET_NO = 999
REV_AT_EPOCH   = 255
BSTAR          = -.37603E-2
MEAN_MOTION_DOT = -.152139E-1
MEAN_MOTION_DDOT = .67168E-3

CCSDS_OMM_VERS = 2.0
CREATION_DATE  = 
ORIGINATOR     = 

OBJECT_NAME    = STARLINK-36912
OBJECT_ID      = 2026-038A
CENTER_NAME    = EARTH
REF_FRAME      = TEME
TIME_SYSTEM    = UTC
MEAN_ELEMENT_THEORY = SGP/SGP4

EPOCH          = 2026-03-05T16:00:00.999936
MEAN_MOTION    = 16.00267875
ECCENTRICITY   = .0001093
INCLINATION    = 97.2764
RA_OF_ASC_NODE = 74.6278
ARG_OF_PERICENTER = 90.6568
MEAN_ANOMALY   = 271.7290

EPHEMERIS_TYPE = 0
CLASSIFICATION_TYPE = U
NORAD_CAT_ID   = 67961
ELEMENT_SET_NO = 999
REV_AT_EPOCH   = 255
BSTAR          = -.30798E-2
MEAN_MOTION_DOT = -.1572209E-1
MEAN_MOTION_DDOT = .76003E-3

CCSDS_OMM_VERS = 2.0
CREATION_DATE  = 
ORIGINATOR     = 

OBJECT_NAME    = STARLINK-36881
OBJECT_ID      = 2026-038B
CENTER_NAME    = EARTH
REF_FRAME      = TEME
TIME_SYSTEM    = UTC
MEAN_ELEMENT_THEORY = SGP/SGP4

EPOCH          = 2026-03-05T16:00:00.999936
MEAN_MOTION    = 16.00340839
ECCENTRICITY   = .0001049
INCLINATION    = 97.2761
RA_OF_ASC_NODE = 74.6284
ARG_OF_PERICENTER = 96.3769
MEAN_ANOMALY   = 267.8586

EPHEMERIS_TYPE = 0
CLASSIFICATION_TYPE = U
NORAD_CAT_ID   = 67962
ELEMENT_SET_NO = 999
REV_AT_EPOCH   = 255
BSTAR          = -.3046E-2
MEAN_MOTION_DOT = -.156149E-1
MEAN_MOTION_DDOT = .75103E-3

CCSDS_OMM_VERS = 2.0
CREATION_DATE  = 
ORIGINATOR     = 

OBJECT_NAME    = STARLINK-36357
OBJECT_ID      = 2026-038C
CENTER_NAME    = EARTH
REF_FRAME      = TEME
TIME_SYSTEM    = UTC
MEAN_ELEMENT_THEORY = SGP/SGP4

EPOCH          = 2026-03-05T16:00:00.999936
MEAN_MOTION    = 16.00582175
ECCENTRICITY   = .0001078
INCLINATION    = 97.2759
RA_OF_ASC_NODE = 74.6307
ARG_OF_PERICENTER = 94.2650
MEAN_ANOMALY   = 274.8562

EPHEMERIS_TYPE = 0
CLASSIFICATION_TYPE = U
NORAD_CAT_ID   = 67963
ELEMENT_SET_NO = 999
REV_AT_EPOCH   = 255
BSTAR          = -.30125E-2
MEAN_MOTION_DOT = -.1565598E-1
MEAN_MOTION_DDOT = .75679E-3

CCSDS_OMM_VERS = 2.0
CREATION_DATE  = 
ORIGINATOR     = 

OBJECT_NAME    = STARLINK-36349
OBJECT_ID      = 2026-038D
CENTER_NAME    = EARTH
REF_FRAME      = TEME
TIME_SYSTEM    = UTC
MEAN_ELEMENT_THEORY = SGP/SGP4

EPOCH          = 2026-03-05T16:00:00.999936
MEAN_MOTION    = 16.00463865
ECCENTRICITY   = .0001105
INCLINATION    = 97.2757
RA_OF_ASC_NODE = 74.6294
ARG_OF_PERICENTER = 97.5370
MEAN_ANOMALY   = 269.1392

EPHEMERIS_TYPE = 0
CLASSIFICATION_TYPE = U
NORAD_CAT_ID   = 67964
ELEMENT_SET_NO = 999
REV_AT_EPOCH   = 255
BSTAR          = -.30354E-2
MEAN_MOTION_DOT = -.1566913E-1
MEAN_MOTION_DDOT = .75695E-3

CCSDS_OMM_VERS = 2.0
CREATION_DATE  = 
ORIGINATOR     = 

OBJECT_NAME    = STARLINK-36806
OBJECT_ID      = 2026-038E
CENTER_NAME    = EARTH
REF_FRAME      = TEME
TIME_SYSTEM    = UTC
MEAN_ELEMENT_THEORY = SGP/SGP4

EPOCH          = 2026-03-05T16:00:00.999936
MEAN_MOTION    = 16.00714096
ECCENTRICITY   = .0001064
INCLINATION    = 97.2754
RA_OF_ASC_NODE = 74.6317
ARG_OF_PERICENTER = 90.9942
MEAN_ANOMALY   = 280.9582

EPHEMERIS_TYPE = 0
CLASSIFICATION_TYPE = U
NORAD_CAT_ID   = 67965
ELEMENT_SET_NO = 999
REV_AT_EPOCH   = 255
BSTAR          = -.29703E-2
MEAN_MOTION_DOT = -.1555422E-1
MEAN_MOTION_DDOT = .74879E-3

CCSDS_OMM_VERS = 2.0
CREATION_DATE  = 
ORIGINATOR     = 

OBJECT_NAME    = STARLINK-36820
OBJECT_ID      = 2026-038F
CENTER_NAME    = EARTH
REF_FRAME      = TEME
TIME_SYSTEM    = UTC
MEAN_ELEMENT_THEORY = SGP/SGP4

EPOCH          = 2026-03-05T16:00:00.999936
MEAN_MOTION    = 16.00831814
ECCENTRICITY   = .0001041
INCLINATION    = 97.2754
RA_OF_ASC_NODE = 74.6329
ARG_OF_PERICENTER = 92.9138
MEAN_ANOMALY   = 281.4122

EPHEMERIS_TYPE = 0
CLASSIFICATION_TYPE = U
NORAD_CAT_ID   = 67966
ELEMENT_SET_NO = 999
REV_AT_EPOCH   = 255
BSTAR          = -.2954E-2
MEAN_MOTION_DOT = -.1557261E-1
MEAN_MOTION_DDOT = .75145E-3

CCSDS_OMM_VERS = 2.0
CREATION_DATE  = 
ORIGINATOR     = 

OBJECT_NAME    = STARLINK-36819
OBJECT_ID      = 2026-038G
CENTER_NAME    = EARTH
REF_FRAME      = TEME
TIME_SYSTEM    = UTC
MEAN_ELEMENT_THEORY = SGP/SGP4

EPOCH          = 2026-03-05T16:00:00.999936
MEAN_MOTION    = 16.00954616
ECCENTRICITY   = .0001118
INCLINATION    = 97.2753
RA_OF_ASC_NODE = 74.6338
ARG_OF_PERICENTER = 87.9487
MEAN_ANOMALY   = 288.9322

EPHEMERIS_TYPE = 0
CLASSIFICATION_TYPE = U
NORAD_CAT_ID   = 67967
ELEMENT_SET_NO = 999
REV_AT_EPOCH   = 255
BSTAR          = -.29277E-2
MEAN_MOTION_DOT = -.1554357E-1
MEAN_MOTION_DDOT = .74989E-3

CCSDS_OMM_VERS = 2.0
CREATION_DATE  = 
ORIGINATOR     = 

OBJECT_NAME    = STARLINK-36812
OBJECT_ID      = 2026-038H
CENTER_NAME    = EARTH
REF_FRAME      = TEME
TIME_SYSTEM    = UTC
MEAN_ELEMENT_THEORY = SGP/SGP4

EPOCH          = 2026-03-05T16:00:00.999936
MEAN_MOTION    = 16.01058008
ECCENTRICITY   = .000108
INCLINATION    = 97.2750
RA_OF_ASC_NODE = 74.6345
ARG_OF_PERICENTER = 85.6168
MEAN_ANOMALY   = 293.4660

EPHEMERIS_TYPE = 0
CLASSIFICATION_TYPE = U
NORAD_CAT_ID   = 67968
ELEMENT_SET_NO = 999
REV_AT_EPOCH   = 255
BSTAR          = -.29062E-2
MEAN_MOTION_DOT = -.1552098E-1
MEAN_MOTION_DDOT = .74875E-3

CCSDS_OMM_VERS = 2.0
CREATION_DATE  = 
ORIGINATOR     = 

OBJECT_NAME    = STARLINK-36709
OBJECT_ID      = 2026-038J
CENTER_NAME    = EARTH
REF_FRAME      = TEME
TIME_SYSTEM    = UTC
MEAN_ELEMENT_THEORY = SGP/SGP4

EPOCH          = 2026-03-05T16:00:00.999936
MEAN_MOTION    = 16.01313975
ECCENTRICITY   = .00011
INCLINATION    = 97.2751
RA_OF_ASC_NODE = 74.6369
ARG_OF_PERICENTER = 82.0966
MEAN_ANOMALY   = 302.2075

EPHEMERIS_TYPE = 0
CLASSIFICATION_TYPE = U
NORAD_CAT_ID   = 67969
ELEMENT_SET_NO = 999
REV_AT_EPOCH   = 255
BSTAR          = -.28654E-2
MEAN_MOTION_DOT = -.1552933E-1
MEAN_MOTION_DDOT = .75171E-3

